STARLINK-5344           
1 55494U 23015AX  25208.76950255  .00001096  00000+0  96205-4 0  9995
2 55494  43.0034 120.8265 0001283 265.7927  94.2769 15.02522787136779
STARLINK-5100           
1 55495U 23015AY  25209.36066704  .00002566  00000+0  20500-3 0  9997
2 55495  43.0042  92.3880 0001292 268.7783  91.2911 15.02530589137156
STARLINK-5363           
1 55497U 23015BA  25209.43317338  .00000581  00000+0  58108-4 0  9990
2 55497  43.0025 117.2087 0001047 264.0590  96.0133 15.02534644136871
STARLINK-5365           
1 55498U 23015BB  25209.09190278 -.00000064  00000+0  10355-4 0  9994
2 55498  43.0039 118.9465 0001106 257.6145 102.4573 15.02534892136825
STARLINK-5366           
1 55499U 23015BC  25208.48694524  .00000265  00000+0  34704-4 0  9996
2 55499  43.0035 122.1493 0001104 272.6305  87.4411 15.02533293137483
STARLINK-5141           
1 55500U 23015BD  25209.16392894 -.00000110  00000+0  69480-5 0  9990
2 55500  43.0022 118.6300 0001350 257.8779 102.1912 15.02535606136831
STARLINK-5367           
1 55501U 23015BE  25209.15394384  .00000829  00000+0  76463-4 0  9990
2 55501  43.0034 118.5434 0000947 264.6557  95.4178 15.02536629136837
STARLINK-5749           
1 55569U 23020A   25209.25100273 -.00000511  00000+0 -22768-4 0  9992
2 55569  43.0030 144.5420 0001094 275.5271  84.5446 15.02530217136226
STARLINK-5737           
1 55570U 23020B   25209.18673859 -.00001853  00000+0 -12210-3 0  9991
2 55570  43.0026 144.9234 0001216 269.5924  90.4779 15.02538015135143
STARLINK-5739           
1 55571U 23020C   25209.18119424  .00000163  00000+0  27164-4 0  9991
2 55571  43.0034 144.8822 0001065 270.7616  89.3104 15.02531681135140
STARLINK-5732           
1 55572U 23020D   25209.17675061  .00001118  00000+0  97863-4 0  9999
2 55572  43.0025 144.8447 0001112 264.9466  95.1249 15.02527233135148
STARLINK-5738           
1 55573U 23020E   25209.17786048  .00000039  00000+0  17949-4 0  9996
2 55573  43.0034 144.8567 0000939 265.8061  94.2674 15.02532840135141
STARLINK-5747           
1 55574U 23020F   25209.16787014  .00000413  00000+0  45628-4 0  9991
2 55574  43.0025 144.7804 0001144 264.6346  95.4366 15.02533112135141
STARLINK-5745           
1 55575U 23020G   25209.17342387 -.00000234  00000+0 -22287-5 0  9993
2 55575  43.0029 144.8185 0000996 264.6670  95.4058 15.02532877135148
STARLINK-5751           
1 55576U 23020H   25209.14730115 -.00000313  00000+0 -80780-5 0  9991
2 55576  43.0026 118.6372 0001018 269.3829  90.6897 15.02537445135444
STARLINK-5752           
1 55577U 23020J   25209.10360270 -.00002088  00000+0 -13950-3 0  9993
2 55577  43.0032 145.0932 0001072 265.2324  94.8396 15.02541042135137
STARLINK-5754           
1 55579U 23020L   25209.21659399 -.00000632  00000+0 -31714-4 0  9992
2 55579  43.0029 144.2867 0001115 271.2974  88.7741 15.02533587135152
