[{"OBJECT_NAME":"STARLINK-5344","OBJECT_ID":"2023-015AX","EPOCH":"2025-07-27T18:28:05.020320","MEAN_MOTION":15.02522787,"ECCENTRICITY":0.0001283,"INCLINATION":43.0034,"RA_OF_ASC_NODE":120.8265,"ARG_OF_PERICENTER":265.7927,"MEAN_ANOMALY":94.2769,"EPHEMERIS_TYPE":0,"CLASSIFICATION_TYPE":"U","NORAD_CAT_ID":55494,"ELEMENT_SET_NO":999,"REV_AT_EPOCH":13677,"BSTAR":9.6205e-5,"MEAN_MOTION_DOT":1.096e-5,"MEAN_MOTION_DDOT":0},{"OBJECT_NAME":"STARLINK-5100","OBJECT_ID":"2023-015AY","EPOCH":"2025-07-28T08:39:21.632256","MEAN_MOTION":15.02530589,"ECCENTRICITY":0.0001292,"INCLINATION":43.0042,"RA_OF_ASC_NODE":92.388,"ARG_OF_PERICENTER":268.7783,"MEAN_ANOMALY":91.2911,"EPHEMERIS_TYPE":0,"CLASSIFICATION_TYPE":"U","NORAD_CAT_ID":55495,"ELEMENT_SET_NO":999,"REV_AT_EPOCH":13715,"BSTAR":0.000205,"MEAN_MOTION_DOT":2.566e-5,"MEAN_MOTION_DDOT":0},{"OBJECT_NAME":"STARLINK-5363","OBJECT_ID":"2023-015BA","EPOCH":"2025-07-28T10:23:46.180032","MEAN_MOTION":15.02534644,"ECCENTRICITY":0.0001047,"INCLINATION":43.0025,"RA_OF_ASC_NODE":117.2087,"ARG_OF_PERICENTER":264.059,"MEAN_ANOMALY":96.0133,"EPHEMERIS_TYPE":0,"CLASSIFICATION_TYPE":"U","NORAD_CAT_ID":55497,"ELEMENT_SET_NO":999,"REV_AT_EPOCH":13687,"BSTAR":5.8108e-5,"MEAN_MOTION_DOT":5.81e-6,"MEAN_MOTION_DDOT":0},{"OBJECT_NAME":"STARLINK-5365","OBJECT_ID":"2023-015BB","EPOCH":"2025-07-28T02:12:20.400192","MEAN_MOTION":15.02534892,"ECCENTRICITY":0.0001106,"INCLINATION":43.0039,"RA_OF_ASC_NODE":118.9465,"ARG_OF_PERICENTER":257.6145,"MEAN_ANOMALY":102.4573,"EPHEMERIS_TYPE":0,"CLASSIFICATION_TYPE":"U","NORAD_CAT_ID":55498,"ELEMENT_SET_NO":999,"REV_AT_EPOCH":13682,"BSTAR":1.0355e-5,"MEAN_MOTION_DOT":-6.4e-7,"MEAN_MOTION_DDOT":0},{"OBJECT_NAME":"STARLINK-5366","OBJECT_ID":"2023-015BC","EPOCH":"2025-07-27T11:41:12.068736","MEAN_MOTION":15.02533293,"ECCENTRICITY":0.0001104,"INCLINATION":43.0035,"RA_OF_ASC_NODE":122.1493,"ARG_OF_PERICENTER":272.6305,"MEAN_ANOMALY":87.4411,"EPHEMERIS_TYPE":0,"CLASSIFICATION_TYPE":"U","NORAD_CAT_ID":55499,"ELEMENT_SET_NO":999,"REV_AT_EPOCH":13748,"BSTAR":3.4704e-5,"MEAN_MOTION_DOT":2.65e-6,"MEAN_MOTION_DDOT":0},{"OBJECT_NAME":"STARLINK-5141","OBJECT_ID":"2023-015BD","EPOCH":"2025-07-28T03:56:03.460416","MEAN_MOTION":15.02535606,"ECCENTRICITY":0.000135,"INCLINATION":43.0022,"RA_OF_ASC_NODE":118.63,"ARG_OF_PERICENTER":257.8779,"MEAN_ANOMALY":102.1912,"EPHEMERIS_TYPE":0,"CLASSIFICATION_TYPE":"U","NORAD_CAT_ID":55500,"ELEMENT_SET_NO":999,"REV_AT_EPOCH":13683,"BSTAR":6.948e-6,"MEAN_MOTION_DOT":-1.1e-6,"MEAN_MOTION_DDOT":0},{"OBJECT_NAME":"STARLINK-5367","OBJECT_ID":"2023-015BE","EPOCH":"2025-07-28T03:41:40.747776","MEAN_MOTION":15.02536629,"ECCENTRICITY":9.47e-5,"INCLINATION":43.0034,"RA_OF_ASC_NODE":118.5434,"ARG_OF_PERICENTER":264.6557,"MEAN_ANOMALY":95.4178,"EPHEMERIS_TYPE":0,"CLASSIFICATION_TYPE":"U","NORAD_CAT_ID":55501,"ELEMENT_SET_NO":999,"REV_AT_EPOCH":13683,"BSTAR":7.6463e-5,"MEAN_MOTION_DOT":8.29e-6,"MEAN_MOTION_DDOT":0},{"OBJECT_NAME":"STARLINK-5749","OBJECT_ID":"2023-020A","EPOCH":"2025-07-28T06:01:26.635872","MEAN_MOTION":15.02530217,"ECCENTRICITY":0.0001094,"INCLINATION":43.003,"RA_OF_ASC_NODE":144.542,"ARG_OF_PERICENTER":275.5271,"MEAN_ANOMALY":84.5446,"EPHEMERIS_TYPE":0,"CLASSIFICATION_TYPE":"U","NORAD_CAT_ID":55569,"ELEMENT_SET_NO":999,"REV_AT_EPOCH":13622,"BSTAR":-2.2768e-5,"MEAN_MOTION_DOT":-5.11e-6,"MEAN_MOTION_DDOT":0},{"OBJECT_NAME":"STARLINK-5737","OBJECT_ID":"2023-020B","EPOCH":"2025-07-28T04:28:54.214176","MEAN_MOTION":15.02538015,"ECCENTRICITY":0.0001216,"INCLINATION":43.0026,"RA_OF_ASC_NODE":144.9234,"ARG_OF_PERICENTER":269.5924,"MEAN_ANOMALY":90.4779,"EPHEMERIS_TYPE":0,"CLASSIFICATION_TYPE":"U","NORAD_CAT_ID":55570,"ELEMENT_SET_NO":999,"REV_AT_EPOCH":13514,"BSTAR":-0.0001221,"MEAN_MOTION_DOT":-1.853e-5,"MEAN_MOTION_DDOT":0},{"OBJECT_NAME":"STARLINK-5739","OBJECT_ID":"2023-020C","EPOCH":"2025-07-28T04:20:55.182336","MEAN_MOTION":15.02531681,"ECCENTRICITY":0.0001065,"INCLINATION":43.0034,"RA_OF_ASC_NODE":144.8822,"ARG_OF_PERICENTER":270.7616,"MEAN_ANOMALY":89.3104,"EPHEMERIS_TYPE":0,"CLASSIFICATION_TYPE":"U","NORAD_CAT_ID":55571,"ELEMENT_SET_NO":999,"REV_AT_EPOCH":13514,"BSTAR":2.7164e-5,"MEAN_MOTION_DOT":1.63e-6,"MEAN_MOTION_DDOT":0},{"OBJECT_NAME":"STARLINK-5732","OBJECT_ID":"2023-020D","EPOCH":"2025-07-28T04:14:31.252704","MEAN_MOTION":15.02527233,"ECCENTRICITY":0.0001112,"INCLINATION":43.0025,"RA_OF_ASC_NODE":144.8447,"ARG_OF_PERICENTER":264.9466,"MEAN_ANOMALY":95.1249,"EPHEMERIS_TYPE":0,"CLASSIFICATION_TYPE":"U","NORAD_CAT_ID":55572,"ELEMENT_SET_NO":999,"REV_AT_EPOCH":13514,"BSTAR":9.7863e-5,"MEAN_MOTION_DOT":1.118e-5,"MEAN_MOTION_DDOT":0},{"OBJECT_NAME":"STARLINK-5738","OBJECT_ID":"2023-020E","EPOCH":"2025-07-28T04:16:07.145472","MEAN_MOTION":15.0253284,"ECCENTRICITY":9.39e-5,"INCLINATION":43.0034,"RA_OF_ASC_NODE":144.8567,"ARG_OF_PERICENTER":265.8061,"MEAN_ANOMALY":94.2674,"EPHEMERIS_TYPE":0,"CLASSIFICATION_TYPE":"U","NORAD_CAT_ID":55573,"ELEMENT_SET_NO":999,"REV_AT_EPOCH":13514,"BSTAR":1.7949e-5,"MEAN_MOTION_DOT":3.9e-7,"MEAN_MOTION_DDOT":0},{"OBJECT_NAME":"STARLINK-5747","OBJECT_ID":"2023-020F","EPOCH":"2025-07-28T04:01:43.980096","MEAN_MOTION":15.02533112,"ECCENTRICITY":0.0001144,"INCLINATION":43.0025,"RA_OF_ASC_NODE":144.7804,"ARG_OF_PERICENTER":264.6346,"MEAN_ANOMALY":95.4366,"EPHEMERIS_TYPE":0,"CLASSIFICATION_TYPE":"U","NORAD_CAT_ID":55574,"ELEMENT_SET_NO":999,"REV_AT_EPOCH":13514,"BSTAR":4.5628e-5,"MEAN_MOTION_DOT":4.13e-6,"MEAN_MOTION_DDOT":0},{"OBJECT_NAME":"STARLINK-5745","OBJECT_ID":"2023-020G","EPOCH":"2025-07-28T04:09:43.822368","MEAN_MOTION":15.02532877,"ECCENTRICITY":9.96e-5,"INCLINATION":43.0029,"RA_OF_ASC_NODE":144.8185,"ARG_OF_PERICENTER":264.667,"MEAN_ANOMALY":95.4058,"EPHEMERIS_TYPE":0,"CLASSIFICATION_TYPE":"U","NORAD_CAT_ID":55575,"ELEMENT_SET_NO":999,"REV_AT_EPOCH":13514,"BSTAR":-2.2287e-6,"MEAN_MOTION_DOT":-2.34e-6,"MEAN_MOTION_DDOT":0},{"OBJECT_NAME":"STARLINK-5751","OBJECT_ID":"2023-020H","EPOCH":"2025-07-28T03:32:06.819360","MEAN_MOTION":15.02537445,"ECCENTRICITY":0.0001018,"INCLINATION":43.0026,"RA_OF_ASC_NODE":118.6372,"ARG_OF_PERICENTER":269.3829,"MEAN_ANOMALY":90.6897,"EPHEMERIS_TYPE":0,"CLASSIFICATION_TYPE":"U","NORAD_CAT_ID":55576,"ELEMENT_SET_NO":999,"REV_AT_EPOCH":13544,"BSTAR":-8.078e-6,"MEAN_MOTION_DOT":-3.13e-6,"MEAN_MOTION_DDOT":0},{"OBJECT_NAME":"STARLINK-5752","OBJECT_ID":"2023-020J","EPOCH":"2025-07-28T02:29:11.273280","MEAN_MOTION":15.02541042,"ECCENTRICITY":0.0001072,"INCLINATION":43.0032,"RA_OF_ASC_NODE":145.0932,"ARG_OF_PERICENTER":265.2324,"MEAN_ANOMALY":94.8396,"EPHEMERIS_TYPE":0,"CLASSIFICATION_TYPE":"U","NORAD_CAT_ID":55577,"ELEMENT_SET_NO":999,"REV_AT_EPOCH":13513,"BSTAR":-0.0001395,"MEAN_MOTION_DOT":-2.088e-5,"MEAN_MOTION_DDOT":0},{"OBJECT_NAME":"STARLINK-5754","OBJECT_ID":"2023-020L","EPOCH":"2025-07-28T05:11:53.720736","MEAN_MOTION":15.02533587,"ECCENTRICITY":0.0001115,"INCLINATION":43.0029,"RA_OF_ASC_NODE":144.2867,"ARG_OF_PERICENTER":271.2974,"MEAN_ANOMALY":88.7741,"EPHEMERIS_TYPE":0,"CLASSIFICATION_TYPE":"U","NORAD_CAT_ID":55579,"ELEMENT_SET_NO":999,"REV_AT_EPOCH":13515,"BSTAR":-3.1714e-5,"MEAN_MOTION_DOT":-6.32e-6,"MEAN_MOTION_DDOT":0}]
